{
  "type": "FeatureCollection",
  "features": [
    {
      "type": "Feature",
      "properties": {
        "norad_id": 56759,
        "name": "NVS-01 (IRNSS-1J)",
        "group": "gnss",
        "lat": 2.577325937108248,
        "lon": -20.976096460315635,
        "alt_km": 35773.45121281764,
        "timestamp": "2025-12-25T07:41:09.967401+00:00",
        "meta_object_name": "NVS-01 (IRNSS-1J)",
        "meta_object_id": "2023-076A",
        "meta_epoch": "2025-12-24T18:51:08.017344",
        "meta_mean_motion": 1.00271242,
        "meta_eccentricity": 0.00088769,
        "meta_inclination": 2.5904,
        "meta_ra_of_asc_node": 251.1711,
        "meta_arg_of_pericenter": 17.2003,
        "meta_mean_anomaly": 237.5326,
        "meta_ephemeris_type": 0,
        "meta_classification_type": "U",
        "meta_norad_cat_id": 56759,
        "meta_element_set_no": 999,
        "meta_rev_at_epoch": 936,
        "meta_bstar": 0,
        "meta_mean_motion_dot": -3.13e-06,
        "meta_mean_motion_ddot": 0,
        "tle_line1": "1 56759U 23076A   25358.78550946 -.00000313  00000+0  00000+0 0  9993",
        "tle_line2": "2 56759   2.5904 251.1711 0008876  17.2003 237.5326  1.00271242  9369"
      },
      "geometry": {
        "type": "Point",
        "coordinates": [
          -20.976096460315635,
          2.577325937108248
        ]
      }
    },
    {
      "type": "Feature",
      "properties": {
        "norad_id": 57517,
        "name": "COSMOS 2569 (703K)",
        "group": "gnss",
        "lat": 49.19941290266357,
        "lon": -133.8319153657277,
        "alt_km": 19150.87151554655,
        "timestamp": "2025-12-25T07:41:09.967413+00:00",
        "meta_object_name": "COSMOS 2569 (703K)",
        "meta_object_id": "2023-114A",
        "meta_epoch": "2025-12-23T18:01:56.220096",
        "meta_mean_motion": 2.13103974,
        "meta_eccentricity": 0.00109355,
        "meta_inclination": 65.1997,
        "meta_ra_of_asc_node": 78.5414,
        "meta_arg_of_pericenter": 287.1018,
        "meta_mean_anomaly": 72.827,
        "meta_ephemeris_type": 0,
        "meta_classification_type": "U",
        "meta_norad_cat_id": 57517,
        "meta_element_set_no": 999,
        "meta_rev_at_epoch": 1852,
        "meta_bstar": 0,
        "meta_mean_motion_dot": 1e-08,
        "meta_mean_motion_ddot": 0,
        "tle_line1": "1 57517U 23114A   25357.75134514  .00000001  00000+0  00000+0 0  9997",
        "tle_line2": "2 57517  65.1997  78.5414 0010935 287.1018  72.8270  2.13103974 18520"
      },
      "geometry": {
        "type": "Point",
        "coordinates": [
          -133.8319153657277,
          49.19941290266357
        ]
      }
    },
    {
      "type": "Feature",
      "properties": {
        "norad_id": 58654,
        "name": "BEIDOU-3 M28 (C50)",
        "group": "gnss",
        "lat": -2.6563403618207353,
        "lon": 66.37317105360685,
        "alt_km": 21527.663488077676,
        "timestamp": "2025-12-25T07:41:09.967423+00:00",
        "meta_object_name": "BEIDOU-3 M28 (C50)",
        "meta_object_id": "2023-207A",
        "meta_epoch": "2025-12-23T17:08:25.533024",
        "meta_mean_motion": 1.86229696,
        "meta_eccentricity": 0.00028713,
        "meta_inclination": 55.5937,
        "meta_ra_of_asc_node": 68.2298,
        "meta_arg_of_pericenter": 275.1516,
        "meta_mean_anomaly": 84.8693,
        "meta_ephemeris_type": 0,
        "meta_classification_type": "U",
        "meta_norad_cat_id": 58654,
        "meta_element_set_no": 999,
        "meta_rev_at_epoch": 1357,
        "meta_bstar": 0,
        "meta_mean_motion_dot": -2.6e-07,
        "meta_mean_motion_ddot": 0,
        "tle_line1": "1 58654U 23207A   25357.71418441 -.00000026  00000+0  00000+0 0  9991",
        "tle_line2": "2 58654  55.5937  68.2298 0002871 275.1516  84.8693  1.86229696 13577"
      },
      "geometry": {
        "type": "Point",
        "coordinates": [
          66.37317105360685,
          -2.6563403618207353
        ]
      }
    },
    {
      "type": "Feature",
      "properties": {
        "norad_id": 58655,
        "name": "BEIDOU-3 M26 (C48)",
        "group": "gnss",
        "lat": 37.49180476115137,
        "lon": -143.48922944647754,
        "alt_km": 21530.66893614946,
        "timestamp": "2025-12-25T07:41:09.967434+00:00",
        "meta_object_name": "BEIDOU-3 M26 (C48)",
        "meta_object_id": "2023-207B",
        "meta_epoch": "2025-12-22T23:23:41.171712",
        "meta_mean_motion": 1.86231234,
        "meta_eccentricity": 0.00041871,
        "meta_inclination": 55.5951,
        "meta_ra_of_asc_node": 68.241,
        "meta_arg_of_pericenter": 260.4893,
        "meta_mean_anomaly": 99.5155,
        "meta_ephemeris_type": 0,
        "meta_classification_type": "U",
        "meta_norad_cat_id": 58655,
        "meta_element_set_no": 999,
        "meta_rev_at_epoch": 1354,
        "meta_bstar": 0,
        "meta_mean_motion_dot": -2.8e-07,
        "meta_mean_motion_ddot": 0,
        "tle_line1": "1 58655U 23207B   25356.97478208 -.00000028  00000+0  00000+0 0  9998",
        "tle_line2": "2 58655  55.5951  68.2410 0004187 260.4893  99.5155  1.86231234 13541"
      },
      "geometry": {
        "type": "Point",
        "coordinates": [
          -143.48922944647754,
          37.49180476115137
        ]
      }
    },
    {
      "type": "Feature",
      "properties": {
        "norad_id": 59598,
        "name": "GSAT0225 (GALILEO 29)",
        "group": "gnss",
        "lat": 53.578477696289085,
        "lon": 177.3781433859357,
        "alt_km": 23218.04061881867,
        "timestamp": "2025-12-25T07:41:09.967445+00:00",
        "meta_object_name": "GSAT0225 (GALILEO 29)",
        "meta_object_id": "2024-079A",
        "meta_epoch": "2025-12-22T20:21:50.564160",
        "meta_mean_motion": 1.70474954,
        "meta_eccentricity": 0.0002219,
        "meta_inclination": 55.0069,
        "meta_ra_of_asc_node": 106.0132,
        "meta_arg_of_pericenter": 188.6953,
        "meta_mean_anomaly": 173.4251,
        "meta_ephemeris_type": 0,
        "meta_classification_type": "U",
        "meta_norad_cat_id": 59598,
        "meta_element_set_no": 999,
        "meta_rev_at_epoch": 1031,
        "meta_bstar": 0,
        "meta_mean_motion_dot": 8e-08,
        "meta_mean_motion_ddot": 0,
        "tle_line1": "1 59598U 24079A   25356.84850190  .00000008  00000+0  00000+0 0  9990",
        "tle_line2": "2 59598  55.0069 106.0132 0002219 188.6953 173.4251  1.70474954 10319"
      },
      "geometry": {
        "type": "Point",
        "coordinates": [
          177.3781433859357,
          53.578477696289085
        ]
      }
    },
    {
      "type": "Feature",
      "properties": {
        "norad_id": 59600,
        "name": "GSAT0227 (GALILEO 30)",
        "group": "gnss",
        "lat": -26.850346975586337,
        "lon": 85.20164135859387,
        "alt_km": 23232.89679691544,
        "timestamp": "2025-12-25T07:41:09.967456+00:00",
        "meta_object_name": "GSAT0227 (GALILEO 30)",
        "meta_object_id": "2024-079C",
        "meta_epoch": "2025-12-21T20:31:35.455872",
        "meta_mean_motion": 1.70474868,
        "meta_eccentricity": 0.00028355,
        "meta_inclination": 55.0019,
        "meta_ra_of_asc_node": 106.0394,
        "meta_arg_of_pericenter": 117.3615,
        "meta_mean_anomaly": 242.6419,
        "meta_ephemeris_type": 0,
        "meta_classification_type": "U",
        "meta_norad_cat_id": 59600,
        "meta_element_set_no": 999,
        "meta_rev_at_epoch": 1034,
        "meta_bstar": 0,
        "meta_mean_motion_dot": 4e-08,
        "meta_mean_motion_ddot": 0,
        "tle_line1": "1 59600U 24079C   25355.85527148  .00000004  00000+0  00000+0 0  9994",
        "tle_line2": "2 59600  55.0019 106.0394 0002835 117.3615 242.6419  1.70474868 10348"
      },
      "geometry": {
        "type": "Point",
        "coordinates": [
          85.20164135859387,
          -26.850346975586337
        ]
      }
    },
    {
      "type": "Feature",
      "properties": {
        "norad_id": 61182,
        "name": "GSAT0232 (GALILEO 32)",
        "group": "gnss",
        "lat": 15.528680075458654,
        "lon": 34.97645802207806,
        "alt_km": 23216.249979730714,
        "timestamp": "2025-12-25T07:41:09.967467+00:00",
        "meta_object_name": "GSAT0232 (GALILEO 32)",
        "meta_object_id": "2024-167A",
        "meta_epoch": "2025-12-24T18:25:47.943264",
        "meta_mean_motion": 1.70473505,
        "meta_eccentricity": 0.0001887,
        "meta_inclination": 55.2374,
        "meta_ra_of_asc_node": 226.1008,
        "meta_arg_of_pericenter": 202.1814,
        "meta_mean_anomaly": 339.8736,
        "meta_ephemeris_type": 0,
        "meta_classification_type": "U",
        "meta_norad_cat_id": 61182,
        "meta_element_set_no": 999,
        "meta_rev_at_epoch": 790,
        "meta_bstar": 0,
        "meta_mean_motion_dot": 7.1e-07,
        "meta_mean_motion_ddot": 0,
        "tle_line1": "1 61182U 24167A   25358.76791601  .00000071  00000+0  00000+0 0  9994",
        "tle_line2": "2 61182  55.2374 226.1008 0001887 202.1814 339.8736  1.70473505  7904"
      },
      "geometry": {
        "type": "Point",
        "coordinates": [
          34.97645802207806,
          15.528680075458654
        ]
      }
    }
  ]
}